KUIPER-00074            
1 64821U 25151F   25213.79928030  .00026083  00000+0  75153-3 0  9998
2 64821  51.8769 207.9123 0005120 205.8609 154.2122 15.35551387  2531
KUIPER-00075            
1 64822U 25151G   25214.18893644  .00022807  00000+0  65785-3 0  9995
2 64822  51.8784 206.0321 0005015 197.8696 162.2114 15.35596384  2590
KUIPER-00076            
1 64823U 25151H   25213.80029923  .00027350  00000+0  79076-3 0  9991
2 64823  51.8770 207.9195 0005114 205.1112 154.9626 15.35416411  2533
KUIPER-00077            
1 64824U 25151J   25214.19277045  .00024431  00000+0  71114-3 0  9997
2 64824  51.8784 206.0560 0005716 212.2558 147.8079 15.35265452  2581
KUIPER-00078            
1 64825U 25151K   25213.86694574  .00014441  00000+0  42521-3 0  9991
2 64825  51.8774 207.6192 0005678 215.3250 144.7360 15.35281468  2549
KUIPER-00079            
1 64826U 25151L   25214.18555108  .00026332  00000+0  74895-3 0  9998
2 64826  51.8782 206.0069 0005984 191.6796 168.4052 15.35947523  3796
KUIPER-00080            
1 64827U 25151M   25213.79823435  .00024346  00000+0  70019-3 0  9993
2 64827  51.8781 207.9127 0005169 200.1367 159.9416 15.35648827  2531
KUIPER-00082            
1 64828U 25151N   25213.79709292  .00022824  00000+0  65506-3 0  9992
2 64828  51.8773 207.8996 0005431 196.1221 163.9594 15.35750705  2532
KUIPER-00083            
1 64829U 25151P   25213.86610996  .00014997  00000+0  44063-3 0  9990
2 64829  51.8769 207.6104 0005223 204.3465 155.7275 15.35319051  3731
KUIPER-00084            
1 64830U 25151Q   25214.16668981 -.00873632  00000+0 -31662-1 0  9993
2 64830  51.8789 206.2707 0005867 210.0489 315.5165 15.30534217  2587
KUIPER-00085            
1 64831U 25151R   25214.18591109  .00002003  00000+0  67399-4 0  9996
2 64831  51.8781 206.0083 0005835 194.0171 166.0655 15.35866857  2596
KUIPER-00086            
1 64832U 25151S   25214.19315373  .00023800  00000+0  69470-3 0  9994
2 64832  51.8772 206.0535 0005616 215.6343 144.4268 15.35195136  2581
KUIPER-00087            
1 64833U 25151T   25213.79784569  .00024549  00000+0  70676-3 0  9998
2 64833  51.8779 207.9094 0005417 191.7961 168.2899 15.35609654  2532
KUIPER-00089            
1 64834U 25151U   25214.19149900  .00026030  00000+0  75542-3 0  9992
2 64834  51.8784 206.0486 0005602 214.1389 145.9237 15.35323964  2595
KUIPER-00090            
1 64835U 25151V   25214.19394424  .00015791  00000+0  46584-3 0  9992
2 64835  51.8777 206.0619 0005782 221.6885 138.3661 15.35144705  2589
KUIPER-00091            
1 64836U 25151W   25213.79611417  .00021421  00000+0  61421-3 0  9996
2 64836  51.8777 207.8938 0005938 192.0142 168.0703 15.35819021  2535
KUIPER-00092            
1 64837U 25151X   25213.79837641  .00025689  00000+0  73883-3 0  9991
2 64837  51.8770 207.9068 0005490 200.3460 159.7308 15.35614894  3746
KUIPER-00093            
1 64838U 25151Y   25213.86582364  .00014332  00000+0  42076-3 0  9992
2 64838  51.8782 207.6158 0005225 206.2152 153.8570 15.35382948  2541
KUIPER-00094            
1 64839U 25151Z   25214.18834636  .00023666  00000+0  68039-3 0  9998
2 64839  51.8774 206.0212 0005245 200.2550 159.8228 15.35676847  2826
